# Generated by Thomas Guilpain  t_guilpain@hotmail.com 
#
# This file contains the orbital elements for 313 satellites on geostationary orbits 
# around the Earth.
# The datas come from the Celestrak site : http://celestrak.com/NORAD/elements/
# Date of last update : 6 July 2002
#

"LES 9" "Sol/Earth"
{
	Mesh "satellite.3ds"
	Radius 0.005

	EllipticalOrbit
	{
		Period          0.99728537
		SemiMajorAxis  42173.97662064579
		Eccentricity    0.0024449
		Inclination     11.364
		AscendingNode   222.8619
		ArgOfPericenter 221.2439
		MeanAnomaly     206.2962
		Epoch           2452360.82151529
	}
        Albedo              10
}

"MARISAT 2" "Sol/Earth"
{
	Mesh "satellite.3ds"
	Radius 0.005

	EllipticalOrbit
	{
		Period          0.9973254
		SemiMajorAxis  42175.10584521189
		Eccentricity    1.813E-4
		Inclination     13.153
		AscendingNode   14.0328
		ArgOfPericenter 89.5585
		MeanAnomaly     218.3263
		Epoch           2452360.70510111
	}
        Albedo              10
}

"COMSTAR 4" "Sol/Earth"
{
	Mesh "satellite.3ds"
	Radius 0.005

	EllipticalOrbit
	{
		Period          0.9972862
		SemiMajorAxis  42174.00014631177
		Eccentricity    1.09E-4
		Inclination     11.4143
		AscendingNode   29.0667
		ArgOfPericenter 134.82
		MeanAnomaly     62.211
		Epoch           2452358.157091
	}
        Albedo              10
}

"SATCOM 5" "Sol/Earth"
{
	Mesh "satellite.3ds"
	Radius 0.005

	EllipticalOrbit
	{
		Period          0.9972899
		SemiMajorAxis  42174.104331325136
		Eccentricity    1.101E-4
		Inclination     8.0947
		AscendingNode   49.8894
		ArgOfPericenter 37.103
		MeanAnomaly     322.8774
		Epoch           2452360.14837098
	}
        Albedo              10
}

"TDRS 1" "Sol/Earth"
{
	Mesh "satellite.3ds"
	Radius 0.005

	EllipticalOrbit
	{
		Period          0.9972898
		SemiMajorAxis  42174.10097052027
		Eccentricity    3.027E-4
		Inclination     11.3248
		AscendingNode   25.9034
		ArgOfPericenter 16.697
		MeanAnomaly     231.0871
		Epoch           2452361.60976274
	}
        Albedo              10
}

"SBS 4" "Sol/Earth"
{
	Mesh "satellite.3ds"
	Radius 0.005

	EllipticalOrbit
	{
		Period          0.997322
		SemiMajorAxis  42175.01006335777
		Eccentricity    1.492E-4
		Inclination     6.8079
		AscendingNode   58.6116
		ArgOfPericenter 38.2008
		MeanAnomaly     318.2133
		Epoch           2452362.07952896
	}
        Albedo              10
}

"NATO 3D" "Sol/Earth"
{
	Mesh "satellite.3ds"
	Radius 0.005

	EllipticalOrbit
	{
		Period          0.9972523
		SemiMajorAxis  42173.043990743725
		Eccentricity    3.154E-4
		Inclination     5.6208
		AscendingNode   50.4259
		ArgOfPericenter 46.5021
		MeanAnomaly     313.4741
		Epoch           2452355.92397684
	}
        Albedo              10
}

"BRASILSAT 1" "Sol/Earth"
{
	Mesh "satellite.3ds"
	Radius 0.005

	EllipticalOrbit
	{
		Period          1.0045505
		SemiMajorAxis  42378.54993816146
		Eccentricity    1.901E-4
		Inclination     5.8608
		AscendingNode   67.1421
		ArgOfPericenter 359.3381
		MeanAnomaly     215.5983
		Epoch           2452356.72787354
	}
        Albedo              10
}

"NAHUEL I1 (ANIK C1)" "Sol/Earth"
{
	Mesh "satellite.3ds"
	Radius 0.005

	EllipticalOrbit
	{
		Period          0.997315
		SemiMajorAxis  42174.81177777027
		Eccentricity    1.427E-4
		Inclination     4.2475
		AscendingNode   80.1573
		ArgOfPericenter 22.5879
		MeanAnomaly     337.3131
		Epoch           2452358.12167821
	}
        Albedo              10
}

"GSTAR 1" "Sol/Earth"
{
	Mesh "satellite.3ds"
	Radius 0.005

	EllipticalOrbit
	{
		Period          0.9972843
		SemiMajorAxis  42173.946373351304
		Eccentricity    4.129E-4
		Inclination     4.7849
		AscendingNode   74.8833
		ArgOfPericenter 244.8429
		MeanAnomaly     292.8668
		Epoch           2452358.71563906
	}
        Albedo              10
}

"INTELSAT 511" "Sol/Earth"
{
	Mesh "satellite.3ds"
	Radius 0.005

	EllipticalOrbit
	{
		Period          0.9973104
		SemiMajorAxis  42174.68238777117
		Eccentricity    4.705E-4
		Inclination     6.9058
		AscendingNode   58.7402
		ArgOfPericenter 32.8662
		MeanAnomaly     223.368
		Epoch           2452360.67368019
	}
        Albedo              10
}

"MORELOS 2" "Sol/Earth"
{
	Mesh "satellite.3ds"
	Radius 0.005

	EllipticalOrbit
	{
		Period          0.9972619
		SemiMajorAxis  42173.31453849787
		Eccentricity    2.016E-4
		Inclination     3.1609
		AscendingNode   84.6628
		ArgOfPericenter 18.3709
		MeanAnomaly     203.0718
		Epoch           2452361.89748891
	}
        Albedo              10
}

"OPTUS A2 (AUSSAT 2)" "Sol/Earth"
{
	Mesh "satellite.3ds"
	Radius 0.005

	EllipticalOrbit
	{
		Period          1.0004605
		SemiMajorAxis  42263.44435983418
		Eccentricity    2.341E-4
		Inclination     6.6723
		AscendingNode   60.3215
		ArgOfPericenter 41.8299
		MeanAnomaly     318.1232
		Epoch           2452357.95325813
	}
        Albedo              10
}

"SATCOM K2" "Sol/Earth"
{
	Mesh "satellite.3ds"
	Radius 0.005

	EllipticalOrbit
	{
		Period          1.0039037
		SemiMajorAxis  42360.359652081184
		Eccentricity    6.842E-4
		Inclination     4.1581
		AscendingNode   79.129
		ArgOfPericenter 356.4797
		MeanAnomaly     188.7632
		Epoch           2452357.49863612
	}
        Albedo              10
}

"BRASILSAT 2" "Sol/Earth"
{
	Mesh "satellite.3ds"
	Radius 0.005

	EllipticalOrbit
	{
		Period          0.9973187
		SemiMajorAxis  42174.915961781146
		Eccentricity    1.511E-4
		Inclination     4.5814
		AscendingNode   75.4632
		ArgOfPericenter 66.1992
		MeanAnomaly     127.6552
		Epoch           2452359.64260418
	}
        Albedo              10
}

"GOES 7" "Sol/Earth"
{
	Mesh "satellite.3ds"
	Radius 0.005

	EllipticalOrbit
	{
		Period          0.9972408
		SemiMajorAxis  42172.71966837925
		Eccentricity    8.155E-4
		Inclination     7.1575
		AscendingNode   56.8597
		ArgOfPericenter 289.7456
		MeanAnomaly     291.6422
		Epoch           2452353.98998226
	}
        Albedo              10
}

"OPTUS A3 (AUSSAT 3)" "Sol/Earth"
{
	Mesh "satellite.3ds"
	Radius 0.005

	EllipticalOrbit
	{
		Period          0.99728465
		SemiMajorAxis  42173.956455784006
		Eccentricity    2.886E-4
		Inclination     4.608
		AscendingNode   71.7715
		ArgOfPericenter 346.016
		MeanAnomaly     118.0174
		Epoch           2452359.75198171
	}
        Albedo              10
}

"EUTELSAT 1-F4 (ECS 4)" "Sol/Earth"
{
	Mesh "satellite.3ds"
	Radius 0.005

	EllipticalOrbit
	{
		Period          0.9972543
		SemiMajorAxis  42173.10112512433
		Eccentricity    5.506E-4
		Inclination     6.742
		AscendingNode   59.935
		ArgOfPericenter 23.8605
		MeanAnomaly     155.7114
		Epoch           2452360.291225
	}
        Albedo              10
}

"NSS 513" "Sol/Earth"
{
	Mesh "satellite.3ds"
	Radius 0.005

	EllipticalOrbit
	{
		Period          0.9972607
		SemiMajorAxis  42173.28093012841
		Eccentricity    3.505E-4
		Inclination     5.3662
		AscendingNode   70.6784
		ArgOfPericenter 26.2504
		MeanAnomaly     356.2763
		Epoch           2452360.46784249
	}
        Albedo              10
}

"GSTAR 3" "Sol/Earth"
{
	Mesh "satellite.3ds"
	Radius 0.005

	EllipticalOrbit
	{
		Period          0.9972784
		SemiMajorAxis  42173.78001303776
		Eccentricity    5.087E-4
		Inclination     10.7871
		AscendingNode   41.2761
		ArgOfPericenter 322.4158
		MeanAnomaly     37.5525
		Epoch           2452358.12996353
	}
        Albedo              10
}

"TDRS 3" "Sol/Earth"
{
	Mesh "satellite.3ds"
	Radius 0.005

	EllipticalOrbit
	{
		Period          0.9972842
		SemiMajorAxis  42173.94301254014
		Eccentricity    2.57E-4
		Inclination     6.7219
		AscendingNode   60.2912
		ArgOfPericenter 15.3158
		MeanAnomaly     253.8214
		Epoch           2452360.39588968
	}
        Albedo              10
}

"ASTRA 1A" "Sol/Earth"
{
	Mesh "satellite.3ds"
	Radius 0.005

	EllipticalOrbit
	{
		Period          0.99727124
		SemiMajorAxis  42173.57836373295
		Eccentricity    3.923E-4
		Inclination     0.8234
		AscendingNode   98.2842
		ArgOfPericenter 357.3197
		MeanAnomaly     160.2954
		Epoch           2452357.42196185
	}
        Albedo              10
}

"COLUMBIA 515" "Sol/Earth"
{
	Mesh "satellite.3ds"
	Radius 0.005

	EllipticalOrbit
	{
		Period          0.9972965
		SemiMajorAxis  42174.29085578569
		Eccentricity    3.283E-4
		Inclination     3.9421
		AscendingNode   80.502
		ArgOfPericenter 29.5691
		MeanAnomaly     171.7695
		Epoch           2452361.6017014
	}
        Albedo              10
}

"TDRS 4" "Sol/Earth"
{
	Mesh "satellite.3ds"
	Radius 0.005

	EllipticalOrbit
	{
		Period          0.9973526
		SemiMajorAxis  42175.87209612941
		Eccentricity    3.517E-4
		Inclination     4.5787
		AscendingNode   76.3019
		ArgOfPericenter 4.3638
		MeanAnomaly     14.2821
		Epoch           2452362.09063624
	}
        Albedo              10
}

"SIRIUS (MARCOPOLO 1)" "Sol/Earth"
{
	Mesh "satellite.3ds"
	Radius 0.005

	EllipticalOrbit
	{
		Period          0.99729234
		SemiMajorAxis  42174.17322779554
		Eccentricity    2.605E-4
		Inclination     2.3893
		AscendingNode   88.568
		ArgOfPericenter 352.2433
		MeanAnomaly     240.899
		Epoch           2452361.64366899
	}
        Albedo              10
}

"INTELSAT 602" "Sol/Earth"
{
	Mesh "satellite.3ds"
	Radius 0.005

	EllipticalOrbit
	{
		Period          0.9972766
		SemiMajorAxis  42173.72960075675
		Eccentricity    2.128E-4
		Inclination     0.6634
		AscendingNode   96.181
		ArgOfPericenter 16.9833
		MeanAnomaly     156.1067
		Epoch           2452359.28998619
	}
        Albedo              10
}

"SKYNET 4A" "Sol/Earth"
{
	Mesh "satellite.3ds"
	Radius 0.005

	EllipticalOrbit
	{
		Period          0.9972791
		SemiMajorAxis  42173.800177941725
		Eccentricity    1.222E-4
		Inclination     5.4713
		AscendingNode   49.2888
		ArgOfPericenter 324.9616
		MeanAnomaly     271.0348
		Epoch           2452361.600897
	}
        Albedo              10
}

